{
"type": "FeatureCollection",
"name": "nh58_segments_features",
"crs": { "type": "name", "properties": { "name": "urn:ogc:def:crs:OGC:1.3:CRS84" } },
"features": [
{ "type": "Feature", "properties": { "segment_id": "NH58_SEG_001", "start_m": 0.0, "end_m": 500.0, "mean_elevation_m": 1866.2, "mean_slope_deg": 22.8, "max_slope_deg": 47.8, "mean_aspect_deg": 177.8, "dist_to_landslide_m": 4278.7, "dist_to_river_m": 466.6 }, "geometry": { "type": "LineString", "coordinates": [ [ 78.981, 30.284 ], [ 78.982546269018982, 30.27969427563399 ] ] } },
{ "type": "Feature", "properties": { "segment_id": "NH58_SEG_002", "start_m": 500.0, "end_m": 1000.0, "mean_elevation_m": 1862.8, "mean_slope_deg": 23.1, "max_slope_deg": 60.6, "mean_aspect_deg": 177.0, "dist_to_landslide_m": 3778.7, "dist_to_river_m": 465.7 }, "geometry": { "type": "LineString", "coordinates": [ [ 78.982546269018982, 30.27969427563399 ], [ 78.984092392665545, 30.275388524199087 ] ] } },
{ "type": "Feature", "properties": { "segment_id": "NH58_SEG_003", "start_m": 1000.0, "end_m": 1500.0, "mean_elevation_m": 1858.7, "mean_slope_deg": 22.7, "max_slope_deg": 47.8, "mean_aspect_deg": 177.5, "dist_to_landslide_m": 3278.7, "dist_to_river_m": 464.7 }, "geometry": { "type": "LineString", "coordinates": [ [ 78.984092392665545, 30.275388524199087 ], [ 78.985638370982727, 30.271082745704955 ] ] } },
{ "type": "Feature", "properties": { "segment_id": "NH58_SEG_004", "start_m": 1500.0, "end_m": 2000.0, "mean_elevation_m": 1856.1, "mean_slope_deg": 22.8, "max_slope_deg": 47.8, "mean_aspect_deg": 176.7, "dist_to_landslide_m": 2778.7, "dist_to_river_m": 464.0 }, "geometry": { "type": "LineString", "coordinates": [ [ 78.985638370982727, 30.271082745704955 ], [ 78.987184204013516, 30.266776940161183 ] ] } },
{ "type": "Feature", "properties": { "segment_id": "NH58_SEG_005", "start_m": 2000.0, "end_m": 2500.0, "mean_elevation_m": 1851.8, "mean_slope_deg": 22.9, "max_slope_deg": 60.6, "mean_aspect_deg": 177.6, "dist_to_landslide_m": 2278.7, "dist_to_river_m": 462.9 }, "geometry": { "type": "LineString", "coordinates": [ [ 78.987184204013516, 30.266776940161183 ], [ 78.988729891800929, 30.262471107577401 ] ] } },
{ "type": "Feature", "properties": { "segment_id": "NH58_SEG_006", "start_m": 2500.0, "end_m": 3000.0, "mean_elevation_m": 1846.2, "mean_slope_deg": 22.7, "max_slope_deg": 47.8, "mean_aspect_deg": 177.8, "dist_to_landslide_m": 1778.7, "dist_to_river_m": 461.6 }, "geometry": { "type": "LineString", "coordinates": [ [ 78.988729891800929, 30.262471107577401 ], [ 78.990275434387925, 30.258165247963241 ] ] } },
{ "type": "Feature", "properties": { "segment_id": "NH58_SEG_007", "start_m": 3000.0, "end_m": 3500.0, "mean_elevation_m": 1842.3, "mean_slope_deg": 22.7, "max_slope_deg": 47.8, "mean_aspect_deg": 178.1, "dist_to_landslide_m": 1278.7, "dist_to_river_m": 460.6 }, "geometry": { "type": "LineString", "coordinates": [ [ 78.990275434387925, 30.258165247963241 ], [ 78.991820831817492, 30.253859361328299 ] ] } },
{ "type": "Feature", "properties": { "segment_id": "NH58_SEG_008", "start_m": 3500.0, "end_m": 4000.0, "mean_elevation_m": 1837.7, "mean_slope_deg": 22.8, "max_slope_deg": 47.8, "mean_aspect_deg": 177.1, "dist_to_landslide_m": 778.7, "dist_to_river_m": 459.4 }, "geometry": { "type": "LineString", "coordinates": [ [ 78.991820831817492, 30.253859361328299 ], [ 78.993366084132589, 30.249553447682221 ] ] } },
{ "type": "Feature", "properties": { "segment_id": "NH58_SEG_009", "start_m": 4000.0, "end_m": 4500.0, "mean_elevation_m": 1828.2, "mean_slope_deg": 22.8, "max_slope_deg": 60.6, "mean_aspect_deg": 177.8, "dist_to_landslide_m": 278.7, "dist_to_river_m": 457.1 }, "geometry": { "type": "LineString", "coordinates": [ [ 78.993366084132589, 30.249553447682221 ], [ 78.99491119137619, 30.245247507034591 ] ] } },
{ "type": "Feature", "properties": { "segment_id": "NH58_SEG_010", "start_m": 4500.0, "end_m": 5000.0, "mean_elevation_m": 1813.9, "mean_slope_deg": 23.4, "max_slope_deg": 54.7, "mean_aspect_deg": 178.4, "dist_to_landslide_m": 222.1, "dist_to_river_m": 453.5 }, "geometry": { "type": "LineString", "coordinates": [ [ 78.99491119137619, 30.245247507034591 ], [ 78.995, 30.245 ], [ 78.999725093281654, 30.246113428695498 ] ] } },
{ "type": "Feature", "properties": { "segment_id": "NH58_SEG_011", "start_m": 5000.0, "end_m": 5500.0, "mean_elevation_m": 1792.5, "mean_slope_deg": 23.2, "max_slope_deg": 50.2, "mean_aspect_deg": 177.7, "dist_to_landslide_m": 721.3, "dist_to_river_m": 448.1 }, "geometry": { "type": "LineString", "coordinates": [ [ 78.999725093281654, 30.246113428695498 ], [ 79.004738476318863, 30.247294579114349 ] ] } },
{ "type": "Feature", "properties": { "segment_id": "NH58_SEG_012", "start_m": 5500.0, "end_m": 6000.0, "mean_elevation_m": 1750.2, "mean_slope_deg": 23.5, "max_slope_deg": 50.2, "mean_aspect_deg": 178.6, "dist_to_landslide_m": 1221.3, "dist_to_river_m": 437.6 }, "geometry": { "type": "LineString", "coordinates": [ [ 79.004738476318863, 30.247294579114349 ], [ 79.009751990001845, 30.24847554270066 ] ] } },
{ "type": "Feature", "properties": { "segment_id": "NH58_SEG_013", "start_m": 6000.0, "end_m": 6500.0, "mean_elevation_m": 1670.7, "mean_slope_deg": 23.3, "max_slope_deg": 50.2, "mean_aspect_deg": 178.0, "dist_to_landslide_m": 1721.3, "dist_to_river_m": 417.7 }, "geometry": { "type": "LineString", "coordinates": [ [ 79.009751990001845, 30.24847554270066 ], [ 79.014765634293795, 30.249656319426457 ] ] } },
{ "type": "Feature", "properties": { "segment_id": "NH58_SEG_014", "start_m": 6500.0, "end_m": 7000.0, "mean_elevation_m": 1514.1, "mean_slope_deg": 23.4, "max_slope_deg": 50.2, "mean_aspect_deg": 178.5, "dist_to_landslide_m": 2221.3, "dist_to_river_m": 378.5 }, "geometry": { "type": "LineString", "coordinates": [ [ 79.014765634293795, 30.249656319426457 ], [ 79.019779409157891, 30.250836909263747 ] ] } },
{ "type": "Feature", "properties": { "segment_id": "NH58_SEG_015", "start_m": 7000.0, "end_m": 7500.0, "mean_elevation_m": 1208.9, "mean_slope_deg": 23.4, "max_slope_deg": 50.2, "mean_aspect_deg": 176.4, "dist_to_landslide_m": 2721.3, "dist_to_river_m": 302.2 }, "geometry": { "type": "LineString", "coordinates": [ [ 79.019779409157891, 30.250836909263747 ], [ 79.024793314557286, 30.252017312184552 ] ] } },
{ "type": "Feature", "properties": { "segment_id": "NH58_SEG_016", "start_m": 7500.0, "end_m": 8000.0, "mean_elevation_m": 944.0, "mean_slope_deg": 23.3, "max_slope_deg": 50.2, "mean_aspect_deg": 177.8, "dist_to_landslide_m": 3221.3, "dist_to_river_m": 236.0 }, "geometry": { "type": "LineString", "coordinates": [ [ 79.024793314557286, 30.252017312184552 ], [ 79.029807350455158, 30.253197528160911 ] ] } },
{ "type": "Feature", "properties": { "segment_id": "NH58_SEG_017", "start_m": 8000.0, "end_m": 8500.0, "mean_elevation_m": 1151.5, "mean_slope_deg": 23.4, "max_slope_deg": 50.2, "mean_aspect_deg": 178.1, "dist_to_landslide_m": 3721.3, "dist_to_river_m": 287.9 }, "geometry": { "type": "LineString", "coordinates": [ [ 79.029807350455158, 30.253197528160911 ], [ 79.03482151681466, 30.25437755716483 ] ] } },
{ "type": "Feature", "properties": { "segment_id": "NH58_SEG_018", "start_m": 8500.0, "end_m": 9000.0, "mean_elevation_m": 1483.6, "mean_slope_deg": 23.5, "max_slope_deg": 50.2, "mean_aspect_deg": 176.7, "dist_to_landslide_m": 4221.3, "dist_to_river_m": 370.9 }, "geometry": { "type": "LineString", "coordinates": [ [ 79.03482151681466, 30.25437755716483 ], [ 79.039835813598913, 30.255557399168357 ] ] } },
{ "type": "Feature", "properties": { "segment_id": "NH58_SEG_019", "start_m": 9000.0, "end_m": 9500.0, "mean_elevation_m": 1657.4, "mean_slope_deg": 23.3, "max_slope_deg": 50.2, "mean_aspect_deg": 179.0, "dist_to_landslide_m": 3754.5, "dist_to_river_m": 414.4 }, "geometry": { "type": "LineString", "coordinates": [ [ 79.039835813598913, 30.255557399168357 ], [ 79.044850240771098, 30.25673705414351 ] ] } },
{ "type": "Feature", "properties": { "segment_id": "NH58_SEG_020", "start_m": 9500.0, "end_m": 10000.0, "mean_elevation_m": 1749.0, "mean_slope_deg": 23.4, "max_slope_deg": 50.2, "mean_aspect_deg": 177.3, "dist_to_landslide_m": 3254.5, "dist_to_river_m": 437.2 }, "geometry": { "type": "LineString", "coordinates": [ [ 79.044850240771098, 30.25673705414351 ], [ 79.04986479829428, 30.257916522062377 ] ] } },
{ "type": "Feature", "properties": { "segment_id": "NH58_SEG_021", "start_m": 10000.0, "end_m": 10500.0, "mean_elevation_m": 1795.5, "mean_slope_deg": 23.4, "max_slope_deg": 50.2, "mean_aspect_deg": 177.6, "dist_to_landslide_m": 2754.5, "dist_to_river_m": 448.9 }, "geometry": { "type": "LineString", "coordinates": [ [ 79.04986479829428, 30.257916522062377 ], [ 79.054879486131611, 30.259095802896962 ] ] } },
{ "type": "Feature", "properties": { "segment_id": "NH58_SEG_022", "start_m": 10500.0, "end_m": 11000.0, "mean_elevation_m": 1820.7, "mean_slope_deg": 23.3, "max_slope_deg": 50.2, "mean_aspect_deg": 177.0, "dist_to_landslide_m": 2254.5, "dist_to_river_m": 455.2 }, "geometry": { "type": "LineString", "coordinates": [ [ 79.054879486131611, 30.259095802896962 ], [ 79.0598943042462, 30.260274896619347 ] ] } },
{ "type": "Feature", "properties": { "segment_id": "NH58_SEG_023", "start_m": 11000.0, "end_m": 11500.0, "mean_elevation_m": 1835.1, "mean_slope_deg": 23.4, "max_slope_deg": 50.2, "mean_aspect_deg": 178.1, "dist_to_landslide_m": 1754.5, "dist_to_river_m": 458.8 }, "geometry": { "type": "LineString", "coordinates": [ [ 79.0598943042462, 30.260274896619347 ], [ 79.064909252601112, 30.261453803201576 ] ] } },
{ "type": "Feature", "properties": { "segment_id": "NH58_SEG_024", "start_m": 11500.0, "end_m": 12000.0, "mean_elevation_m": 1843.6, "mean_slope_deg": 23.3, "max_slope_deg": 50.2, "mean_aspect_deg": 178.6, "dist_to_landslide_m": 1254.5, "dist_to_river_m": 460.9 }, "geometry": { "type": "LineString", "coordinates": [ [ 79.064909252601112, 30.261453803201576 ], [ 79.06992433115947, 30.262632522615739 ] ] } },
{ "type": "Feature", "properties": { "segment_id": "NH58_SEG_025", "start_m": 12000.0, "end_m": 12500.0, "mean_elevation_m": 1847.9, "mean_slope_deg": 23.3, "max_slope_deg": 50.2, "mean_aspect_deg": 178.3, "dist_to_landslide_m": 754.5, "dist_to_river_m": 462.0 }, "geometry": { "type": "LineString", "coordinates": [ [ 79.06992433115947, 30.262632522615739 ], [ 79.074939539884312, 30.263811054833855 ] ] } },
{ "type": "Feature", "properties": { "segment_id": "NH58_SEG_026", "start_m": 12500.0, "end_m": 13000.0, "mean_elevation_m": 1849.1, "mean_slope_deg": 23.5, "max_slope_deg": 50.2, "mean_aspect_deg": 178.1, "dist_to_landslide_m": 254.5, "dist_to_river_m": 462.3 }, "geometry": { "type": "LineString", "coordinates": [ [ 79.074939539884312, 30.263811054833855 ], [ 79.079954878738747, 30.264989399828046 ] ] } },
{ "type": "Feature", "properties": { "segment_id": "NH58_SEG_027", "start_m": 13000.0, "end_m": 13500.0, "mean_elevation_m": 1851.9, "mean_slope_deg": 23.4, "max_slope_deg": 50.2, "mean_aspect_deg": 177.9, "dist_to_landslide_m": 245.5, "dist_to_river_m": 463.0 }, "geometry": { "type": "LineString", "coordinates": [ [ 79.079954878738747, 30.264989399828046 ], [ 79.08, 30.265 ], [ 79.084854478223335, 30.266490310020917 ] ] } },
{ "type": "Feature", "properties": { "segment_id": "NH58_SEG_028", "start_m": 13500.0, "end_m": 14000.0, "mean_elevation_m": 1853.2, "mean_slope_deg": 23.5, "max_slope_deg": 50.2, "mean_aspect_deg": 178.8, "dist_to_landslide_m": 745.5, "dist_to_river_m": 463.3 }, "geometry": { "type": "LineString", "coordinates": [ [ 79.084854478223335, 30.266490310020917 ], [ 79.089753184306602, 30.267993972908716 ] ] } },
{ "type": "Feature", "properties": { "segment_id": "NH58_SEG_029", "start_m": 14000.0, "end_m": 14500.0, "mean_elevation_m": 1854.2, "mean_slope_deg": 23.2, "max_slope_deg": 48.2, "mean_aspect_deg": 177.6, "dist_to_landslide_m": 1245.5, "dist_to_river_m": 463.6 }, "geometry": { "type": "LineString", "coordinates": [ [ 79.089753184306602, 30.267993972908716 ], [ 79.094652048976727, 30.269497458489091 ] ] } },
{ "type": "Feature", "properties": { "segment_id": "NH58_SEG_030", "start_m": 14500.0, "end_m": 15000.0, "mean_elevation_m": 1855.9, "mean_slope_deg": 23.5, "max_slope_deg": 48.2, "mean_aspect_deg": 178.5, "dist_to_landslide_m": 1745.5, "dist_to_river_m": 464.0 }, "geometry": { "type": "LineString", "coordinates": [ [ 79.094652048976727, 30.269497458489091 ], [ 79.099551072206481, 30.271000766728267 ] ] } },
{ "type": "Feature", "properties": { "segment_id": "NH58_SEG_031", "start_m": 15000.0, "end_m": 15500.0, "mean_elevation_m": 1857.5, "mean_slope_deg": 23.3, "max_slope_deg": 50.2, "mean_aspect_deg": 178.3, "dist_to_landslide_m": 2245.5, "dist_to_river_m": 464.4 }, "geometry": { "type": "LineString", "coordinates": [ [ 79.099551072206481, 30.271000766728267 ], [ 79.104450253968622, 30.272503897592514 ] ] } },
{ "type": "Feature", "properties": { "segment_id": "NH58_SEG_032", "start_m": 15500.0, "end_m": 16000.0, "mean_elevation_m": 1859.3, "mean_slope_deg": 23.6, "max_slope_deg": 50.2, "mean_aspect_deg": 178.9, "dist_to_landslide_m": 2745.5, "dist_to_river_m": 464.8 }, "geometry": { "type": "LineString", "coordinates": [ [ 79.104450253968622, 30.272503897592514 ], [ 79.109349594235866, 30.274006851048103 ] ] } },
{ "type": "Feature", "properties": { "segment_id": "NH58_SEG_033", "start_m": 16000.0, "end_m": 16500.0, "mean_elevation_m": 1861.0, "mean_slope_deg": 23.4, "max_slope_deg": 50.2, "mean_aspect_deg": 177.7, "dist_to_landslide_m": 3245.5, "dist_to_river_m": 465.2 }, "geometry": { "type": "LineString", "coordinates": [ [ 79.109349594235866, 30.274006851048103 ], [ 79.114249092980955, 30.275509627061268 ] ] } },
{ "type": "Feature", "properties": { "segment_id": "NH58_SEG_034", "start_m": 16500.0, "end_m": 17000.0, "mean_elevation_m": 1863.1, "mean_slope_deg": 23.4, "max_slope_deg": 50.2, "mean_aspect_deg": 177.8, "dist_to_landslide_m": 3745.5, "dist_to_river_m": 465.8 }, "geometry": { "type": "LineString", "coordinates": [ [ 79.114249092980955, 30.275509627061268 ], [ 79.119148750176606, 30.277012225598273 ] ] } },
{ "type": "Feature", "properties": { "segment_id": "NH58_SEG_035", "start_m": 17000.0, "end_m": 17500.0, "mean_elevation_m": 1863.1, "mean_slope_deg": 23.4, "max_slope_deg": 50.2, "mean_aspect_deg": 177.2, "dist_to_landslide_m": 3408.1, "dist_to_river_m": 465.8 }, "geometry": { "type": "LineString", "coordinates": [ [ 79.119148750176606, 30.277012225598273 ], [ 79.124048565795547, 30.2785146466254 ] ] } },
{ "type": "Feature", "properties": { "segment_id": "NH58_SEG_036", "start_m": 17500.0, "end_m": 18000.0, "mean_elevation_m": 1863.0, "mean_slope_deg": 23.1, "max_slope_deg": 48.2, "mean_aspect_deg": 178.0, "dist_to_landslide_m": 2908.1, "dist_to_river_m": 465.8 }, "geometry": { "type": "LineString", "coordinates": [ [ 79.124048565795547, 30.2785146466254 ], [ 79.128948539810466, 30.280016890108918 ] ] } },
{ "type": "Feature", "properties": { "segment_id": "NH58_SEG_037", "start_m": 18000.0, "end_m": 18500.0, "mean_elevation_m": 1863.4, "mean_slope_deg": 23.5, "max_slope_deg": 48.2, "mean_aspect_deg": 178.2, "dist_to_landslide_m": 2408.1, "dist_to_river_m": 465.9 }, "geometry": { "type": "LineString", "coordinates": [ [ 79.128948539810466, 30.280016890108918 ], [ 79.13384867219402, 30.281518956015098 ] ] } },
{ "type": "Feature", "properties": { "segment_id": "NH58_SEG_038", "start_m": 18500.0, "end_m": 19000.0, "mean_elevation_m": 1865.7, "mean_slope_deg": 23.3, "max_slope_deg": 50.2, "mean_aspect_deg": 178.4, "dist_to_landslide_m": 1908.1, "dist_to_river_m": 466.4 }, "geometry": { "type": "LineString", "coordinates": [ [ 79.13384867219402, 30.281518956015098 ], [ 79.138748962918939, 30.283020844310226 ] ] } },
{ "type": "Feature", "properties": { "segment_id": "NH58_SEG_039", "start_m": 19000.0, "end_m": 19500.0, "mean_elevation_m": 1868.4, "mean_slope_deg": 23.6, "max_slope_deg": 50.2, "mean_aspect_deg": 178.3, "dist_to_landslide_m": 1408.1, "dist_to_river_m": 467.1 }, "geometry": { "type": "LineString", "coordinates": [ [ 79.138748962918939, 30.283020844310226 ], [ 79.143649411957853, 30.284522554960578 ] ] } },
{ "type": "Feature", "properties": { "segment_id": "NH58_SEG_040", "start_m": 19500.0, "end_m": 20000.0, "mean_elevation_m": 1868.5, "mean_slope_deg": 23.3, "max_slope_deg": 50.2, "mean_aspect_deg": 177.7, "dist_to_landslide_m": 908.1, "dist_to_river_m": 467.1 }, "geometry": { "type": "LineString", "coordinates": [ [ 79.143649411957853, 30.284522554960578 ], [ 79.148550019283434, 30.286024087932422 ] ] } },
{ "type": "Feature", "properties": { "segment_id": "NH58_SEG_041", "start_m": 20000.0, "end_m": 20500.0, "mean_elevation_m": 1869.3, "mean_slope_deg": 23.5, "max_slope_deg": 50.2, "mean_aspect_deg": 177.5, "dist_to_landslide_m": 408.1, "dist_to_river_m": 467.3 }, "geometry": { "type": "LineString", "coordinates": [ [ 79.148550019283434, 30.286024087932422 ], [ 79.153450784868326, 30.287525443192077 ] ] } },
{ "type": "Feature", "properties": { "segment_id": "NH58_SEG_042", "start_m": 20500.0, "end_m": 21000.0, "mean_elevation_m": 1870.7, "mean_slope_deg": 23.0, "max_slope_deg": 47.4, "mean_aspect_deg": 177.2, "dist_to_landslide_m": 102.1, "dist_to_river_m": 467.7 }, "geometry": { "type": "LineString", "coordinates": [ [ 79.153450784868326, 30.287525443192077 ], [ 79.155, 30.288 ], [ 79.158104947770298, 30.286498766229897 ] ] } },
{ "type": "Feature", "properties": { "segment_id": "NH58_SEG_043", "start_m": 21000.0, "end_m": 21500.0, "mean_elevation_m": 1868.7, "mean_slope_deg": 22.7, "max_slope_deg": 60.6, "mean_aspect_deg": 175.5, "dist_to_landslide_m": 591.9, "dist_to_river_m": 467.2 }, "geometry": { "type": "LineString", "coordinates": [ [ 79.158104947770298, 30.286498766229897 ], [ 79.162644911553869, 30.284303485892789 ] ] } },
{ "type": "Feature", "properties": { "segment_id": "NH58_SEG_044", "start_m": 21500.0, "end_m": 22000.0, "mean_elevation_m": 1867.1, "mean_slope_deg": 22.8, "max_slope_deg": 60.6, "mean_aspect_deg": 175.7, "dist_to_landslide_m": 1091.9, "dist_to_river_m": 466.8 }, "geometry": { "type": "LineString", "coordinates": [ [ 79.162644911553869, 30.284303485892789 ], [ 79.167184678987851, 30.28210803893753 ] ] } },
{ "type": "Feature", "properties": { "segment_id": "NH58_SEG_045", "start_m": 22000.0, "end_m": 22500.0, "mean_elevation_m": 1865.1, "mean_slope_deg": 22.7, "max_slope_deg": 48.7, "mean_aspect_deg": 175.8, "dist_to_landslide_m": 1591.9, "dist_to_river_m": 466.3 }, "geometry": { "type": "LineString", "coordinates": [ [ 79.167184678987851, 30.28210803893753 ], [ 79.171724250068806, 30.279912425404895 ] ] } },
{ "type": "Feature", "properties": { "segment_id": "NH58_SEG_046", "start_m": 22500.0, "end_m": 23000.0, "mean_elevation_m": 1864.2, "mean_slope_deg": 22.7, "max_slope_deg": 48.7, "mean_aspect_deg": 175.4, "dist_to_landslide_m": 2091.9, "dist_to_river_m": 466.1 }, "geometry": { "type": "LineString", "coordinates": [ [ 79.171724250068806, 30.279912425404895 ], [ 79.176263624793236, 30.277716645335641 ] ] } },
{ "type": "Feature", "properties": { "segment_id": "NH58_SEG_047", "start_m": 23000.0, "end_m": 23500.0, "mean_elevation_m": 1861.1, "mean_slope_deg": 22.8, "max_slope_deg": 48.7, "mean_aspect_deg": 175.6, "dist_to_landslide_m": 2591.9, "dist_to_river_m": 465.3 }, "geometry": { "type": "LineString", "coordinates": [ [ 79.176263624793236, 30.277716645335641 ], [ 79.18080280315769, 30.27552069877051 ] ] } },
{ "type": "Feature", "properties": { "segment_id": "NH58_SEG_048", "start_m": 23500.0, "end_m": 24000.0, "mean_elevation_m": 1859.3, "mean_slope_deg": 22.8, "max_slope_deg": 60.6, "mean_aspect_deg": 175.8, "dist_to_landslide_m": 3091.9, "dist_to_river_m": 464.8 }, "geometry": { "type": "LineString", "coordinates": [ [ 79.18080280315769, 30.27552069877051 ], [ 79.185341785158698, 30.273324585750284 ] ] } },
{ "type": "Feature", "properties": { "segment_id": "NH58_SEG_049", "start_m": 24000.0, "end_m": 24500.0, "mean_elevation_m": 1857.8, "mean_slope_deg": 22.7, "max_slope_deg": 60.6, "mean_aspect_deg": 175.4, "dist_to_landslide_m": 3238.0, "dist_to_river_m": 464.4 }, "geometry": { "type": "LineString", "coordinates": [ [ 79.185341785158698, 30.273324585750284 ], [ 79.189880570792852, 30.27112830631571 ] ] } },
{ "type": "Feature", "properties": { "segment_id": "NH58_SEG_050", "start_m": 24500.0, "end_m": 25000.0, "mean_elevation_m": 1855.2, "mean_slope_deg": 22.7, "max_slope_deg": 48.7, "mean_aspect_deg": 175.5, "dist_to_landslide_m": 2738.0, "dist_to_river_m": 463.8 }, "geometry": { "type": "LineString", "coordinates": [ [ 79.189880570792852, 30.27112830631571 ], [ 79.194419160056682, 30.268931860507557 ] ] } },
{ "type": "Feature", "properties": { "segment_id": "NH58_SEG_051", "start_m": 25000.0, "end_m": 25500.0, "mean_elevation_m": 1853.9, "mean_slope_deg": 22.7, "max_slope_deg": 48.7, "mean_aspect_deg": 175.5, "dist_to_landslide_m": 2238.0, "dist_to_river_m": 463.5 }, "geometry": { "type": "LineString", "coordinates": [ [ 79.194419160056682, 30.268931860507557 ], [ 79.19895755294678, 30.266735248366594 ] ] } },
{ "type": "Feature", "properties": { "segment_id": "NH58_SEG_052", "start_m": 25500.0, "end_m": 26000.0, "mean_elevation_m": 1853.1, "mean_slope_deg": 22.7, "max_slope_deg": 48.7, "mean_aspect_deg": 176.0, "dist_to_landslide_m": 1738.0, "dist_to_river_m": 463.3 }, "geometry": { "type": "LineString", "coordinates": [ [ 79.19895755294678, 30.266735248366594 ], [ 79.203495749459748, 30.26453846993358 ] ] } },
{ "type": "Feature", "properties": { "segment_id": "NH58_SEG_053", "start_m": 26000.0, "end_m": 26500.0, "mean_elevation_m": 1852.3, "mean_slope_deg": 22.7, "max_slope_deg": 48.7, "mean_aspect_deg": 175.0, "dist_to_landslide_m": 1238.0, "dist_to_river_m": 463.1 }, "geometry": { "type": "LineString", "coordinates": [ [ 79.203495749459748, 30.26453846993358 ], [ 79.208033749592147, 30.262341525249301 ] ] } },
{ "type": "Feature", "properties": { "segment_id": "NH58_SEG_054", "start_m": 26500.0, "end_m": 27000.0, "mean_elevation_m": 1849.5, "mean_slope_deg": 22.9, "max_slope_deg": 48.7, "mean_aspect_deg": 175.0, "dist_to_landslide_m": 738.0, "dist_to_river_m": 462.4 }, "geometry": { "type": "LineString", "coordinates": [ [ 79.208033749592147, 30.262341525249301 ], [ 79.212571553340595, 30.260144414354492 ] ] } },
{ "type": "Feature", "properties": { "segment_id": "NH58_SEG_055", "start_m": 27000.0, "end_m": 27500.0, "mean_elevation_m": 1847.1, "mean_slope_deg": 22.9, "max_slope_deg": 48.7, "mean_aspect_deg": 177.5, "dist_to_landslide_m": 238.1, "dist_to_river_m": 461.8 }, "geometry": { "type": "LineString", "coordinates": [ [ 79.212571553340595, 30.260144414354492 ], [ 79.217, 30.258 ], [ 79.217092289252491, 30.25807318344766 ] ] } },
{ "type": "Feature", "properties": { "segment_id": "NH58_SEG_056", "start_m": 27500.0, "end_m": 28000.0, "mean_elevation_m": 1847.8, "mean_slope_deg": 23.9, "max_slope_deg": 54.7, "mean_aspect_deg": 182.0, "dist_to_landslide_m": 262.0, "dist_to_river_m": 461.9 }, "geometry": { "type": "LineString", "coordinates": [ [ 79.217092289252491, 30.25807318344766 ], [ 79.220928622496402, 30.26111516561684 ] ] } },
{ "type": "Feature", "properties": { "segment_id": "NH58_SEG_057", "start_m": 28000.0, "end_m": 28500.0, "mean_elevation_m": 1850.0, "mean_slope_deg": 23.8, "max_slope_deg": 54.7, "mean_aspect_deg": 181.9, "dist_to_landslide_m": 762.0, "dist_to_river_m": 462.5 }, "geometry": { "type": "LineString", "coordinates": [ [ 79.220928622496402, 30.26111516561684 ], [ 79.224765193390738, 30.264157043466181 ] ] } },
{ "type": "Feature", "properties": { "segment_id": "NH58_SEG_058", "start_m": 28500.0, "end_m": 29000.0, "mean_elevation_m": 1851.5, "mean_slope_deg": 23.8, "max_slope_deg": 47.8, "mean_aspect_deg": 184.7, "dist_to_landslide_m": 1262.0, "dist_to_river_m": 462.9 }, "geometry": { "type": "LineString", "coordinates": [ [ 79.224765193390738, 30.264157043466181 ], [ 79.228602001968795, 30.26719881695432 ] ] } },
{ "type": "Feature", "properties": { "segment_id": "NH58_SEG_059", "start_m": 29000.0, "end_m": 29500.0, "mean_elevation_m": 1854.2, "mean_slope_deg": 23.9, "max_slope_deg": 47.8, "mean_aspect_deg": 184.2, "dist_to_landslide_m": 1762.0, "dist_to_river_m": 463.6 }, "geometry": { "type": "LineString", "coordinates": [ [ 79.228602001968795, 30.26719881695432 ], [ 79.232439048263871, 30.270240486039899 ] ] } },
{ "type": "Feature", "properties": { "segment_id": "NH58_SEG_060", "start_m": 29500.0, "end_m": 30000.0, "mean_elevation_m": 1856.3, "mean_slope_deg": 23.9, "max_slope_deg": 54.7, "mean_aspect_deg": 182.8, "dist_to_landslide_m": 2262.0, "dist_to_river_m": 464.1 }, "geometry": { "type": "LineString", "coordinates": [ [ 79.232439048263871, 30.270240486039899 ], [ 79.236276332309259, 30.273282050681548 ] ] } },
{ "type": "Feature", "properties": { "segment_id": "NH58_SEG_061", "start_m": 30000.0, "end_m": 30500.0, "mean_elevation_m": 1860.0, "mean_slope_deg": 23.8, "max_slope_deg": 54.7, "mean_aspect_deg": 183.2, "dist_to_landslide_m": 2762.0, "dist_to_river_m": 465.0 }, "geometry": { "type": "LineString", "coordinates": [ [ 79.236276332309259, 30.273282050681548 ], [ 79.240113854138272, 30.276323510837901 ] ] } },
{ "type": "Feature", "properties": { "segment_id": "NH58_SEG_062", "start_m": 30500.0, "end_m": 31000.0, "mean_elevation_m": 1862.9, "mean_slope_deg": 23.8, "max_slope_deg": 47.8, "mean_aspect_deg": 183.6, "dist_to_landslide_m": 3262.0, "dist_to_river_m": 465.7 }, "geometry": { "type": "LineString", "coordinates": [ [ 79.240113854138272, 30.276323510837901 ], [ 79.243951613784176, 30.279364866467599 ] ] } },
{ "type": "Feature", "properties": { "segment_id": "NH58_SEG_063", "start_m": 31000.0, "end_m": 31500.0, "mean_elevation_m": 1864.9, "mean_slope_deg": 23.8, "max_slope_deg": 47.8, "mean_aspect_deg": 185.5, "dist_to_landslide_m": 3142.9, "dist_to_river_m": 466.2 }, "geometry": { "type": "LineString", "coordinates": [ [ 79.243951613784176, 30.279364866467599 ], [ 79.247789611280268, 30.282406117529241 ] ] } },
{ "type": "Feature", "properties": { "segment_id": "NH58_SEG_064", "start_m": 31500.0, "end_m": 32000.0, "mean_elevation_m": 1868.2, "mean_slope_deg": 23.9, "max_slope_deg": 54.7, "mean_aspect_deg": 183.7, "dist_to_landslide_m": 2642.9, "dist_to_river_m": 467.1 }, "geometry": { "type": "LineString", "coordinates": [ [ 79.247789611280268, 30.282406117529241 ], [ 79.251627846659858, 30.285447263981474 ] ] } },
{ "type": "Feature", "properties": { "segment_id": "NH58_SEG_065", "start_m": 32000.0, "end_m": 32500.0, "mean_elevation_m": 1871.1, "mean_slope_deg": 23.8, "max_slope_deg": 54.7, "mean_aspect_deg": 183.3, "dist_to_landslide_m": 2142.9, "dist_to_river_m": 467.8 }, "geometry": { "type": "LineString", "coordinates": [ [ 79.251627846659858, 30.285447263981474 ], [ 79.255466319956213, 30.288488305782902 ] ] } },
{ "type": "Feature", "properties": { "segment_id": "NH58_SEG_066", "start_m": 32500.0, "end_m": 33000.0, "mean_elevation_m": 1872.4, "mean_slope_deg": 23.8, "max_slope_deg": 47.8, "mean_aspect_deg": 182.9, "dist_to_landslide_m": 1642.9, "dist_to_river_m": 468.1 }, "geometry": { "type": "LineString", "coordinates": [ [ 79.255466319956213, 30.288488305782902 ], [ 79.259305031202629, 30.291529242892157 ] ] } },
{ "type": "Feature", "properties": { "segment_id": "NH58_SEG_067", "start_m": 33000.0, "end_m": 33500.0, "mean_elevation_m": 1874.8, "mean_slope_deg": 23.8, "max_slope_deg": 47.8, "mean_aspect_deg": 186.8, "dist_to_landslide_m": 1142.9, "dist_to_river_m": 468.7 }, "geometry": { "type": "LineString", "coordinates": [ [ 79.259305031202629, 30.291529242892157 ], [ 79.263143980432389, 30.294570075267835 ] ] } },
{ "type": "Feature", "properties": { "segment_id": "NH58_SEG_068", "start_m": 33500.0, "end_m": 34000.0, "mean_elevation_m": 1877.8, "mean_slope_deg": 23.9, "max_slope_deg": 54.7, "mean_aspect_deg": 184.1, "dist_to_landslide_m": 642.9, "dist_to_river_m": 469.4 }, "geometry": { "type": "LineString", "coordinates": [ [ 79.263143980432389, 30.294570075267835 ], [ 79.266983167678788, 30.297610802868569 ] ] } },
{ "type": "Feature", "properties": { "segment_id": "NH58_SEG_069", "start_m": 34000.0, "end_m": 34500.0, "mean_elevation_m": 1879.8, "mean_slope_deg": 23.8, "max_slope_deg": 54.7, "mean_aspect_deg": 182.4, "dist_to_landslide_m": 142.9, "dist_to_river_m": 469.9 }, "geometry": { "type": "LineString", "coordinates": [ [ 79.266983167678788, 30.297610802868569 ], [ 79.27, 30.3 ], [ 79.270889625435004, 30.300581321826225 ] ] } },
{ "type": "Feature", "properties": { "segment_id": "NH58_SEG_070", "start_m": 34500.0, "end_m": 35000.0, "mean_elevation_m": 1881.3, "mean_slope_deg": 23.9, "max_slope_deg": 54.7, "mean_aspect_deg": 183.8, "dist_to_landslide_m": 357.1, "dist_to_river_m": 470.3 }, "geometry": { "type": "LineString", "coordinates": [ [ 79.270889625435004, 30.300581321826225 ], [ 79.275042164380963, 30.303294612870079 ] ] } },
{ "type": "Feature", "properties": { "segment_id": "NH58_SEG_071", "start_m": 35000.0, "end_m": 35500.0, "mean_elevation_m": 1883.7, "mean_slope_deg": 23.8, "max_slope_deg": 54.7, "mean_aspect_deg": 183.5, "dist_to_landslide_m": 857.1, "dist_to_river_m": 470.9 }, "geometry": { "type": "LineString", "coordinates": [ [ 79.275042164380963, 30.303294612870079 ], [ 79.279194935128444, 30.306007779846244 ] ] } },
{ "type": "Feature", "properties": { "segment_id": "NH58_SEG_072", "start_m": 35500.0, "end_m": 36000.0, "mean_elevation_m": 1885.5, "mean_slope_deg": 23.7, "max_slope_deg": 54.7, "mean_aspect_deg": 183.0, "dist_to_landslide_m": 1357.1, "dist_to_river_m": 471.4 }, "geometry": { "type": "LineString", "coordinates": [ [ 79.279194935128444, 30.306007779846244 ], [ 79.283347937697599, 30.308720822711457 ] ] } },
{ "type": "Feature", "properties": { "segment_id": "NH58_SEG_073", "start_m": 36000.0, "end_m": 36500.0, "mean_elevation_m": 1888.2, "mean_slope_deg": 23.7, "max_slope_deg": 54.7, "mean_aspect_deg": 182.6, "dist_to_landslide_m": 1857.1, "dist_to_river_m": 472.1 }, "geometry": { "type": "LineString", "coordinates": [ [ 79.283347937697599, 30.308720822711457 ], [ 79.287501172108549, 30.311433741422452 ] ] } },
{ "type": "Feature", "properties": { "segment_id": "NH58_SEG_074", "start_m": 36500.0, "end_m": 37000.0, "mean_elevation_m": 1890.3, "mean_slope_deg": 23.8, "max_slope_deg": 54.7, "mean_aspect_deg": 183.0, "dist_to_landslide_m": 2357.1, "dist_to_river_m": 472.6 }, "geometry": { "type": "LineString", "coordinates": [ [ 79.287501172108549, 30.311433741422452 ], [ 79.291654638381431, 30.314146535935993 ] ] } },
{ "type": "Feature", "properties": { "segment_id": "NH58_SEG_075", "start_m": 37000.0, "end_m": 37500.0, "mean_elevation_m": 1891.4, "mean_slope_deg": 23.7, "max_slope_deg": 47.8, "mean_aspect_deg": 183.2, "dist_to_landslide_m": 2857.1, "dist_to_river_m": 472.9 }, "geometry": { "type": "LineString", "coordinates": [ [ 79.291654638381431, 30.314146535935993 ], [ 79.295808336536368, 30.316859206208822 ] ] } },
{ "type": "Feature", "properties": { "segment_id": "NH58_SEG_076", "start_m": 37500.0, "end_m": 38000.0, "mean_elevation_m": 1893.3, "mean_slope_deg": 23.8, "max_slope_deg": 47.8, "mean_aspect_deg": 185.1, "dist_to_landslide_m": 2541.2, "dist_to_river_m": 473.3 }, "geometry": { "type": "LineString", "coordinates": [ [ 79.295808336536368, 30.316859206208822 ], [ 79.299962266593468, 30.319571752197682 ] ] } },
{ "type": "Feature", "properties": { "segment_id": "NH58_SEG_077", "start_m": 38000.0, "end_m": 38500.0, "mean_elevation_m": 1896.6, "mean_slope_deg": 23.6, "max_slope_deg": 47.8, "mean_aspect_deg": 184.2, "dist_to_landslide_m": 2041.2, "dist_to_river_m": 474.1 }, "geometry": { "type": "LineString", "coordinates": [ [ 79.299962266593468, 30.319571752197682 ], [ 79.30411642857284, 30.322284173859298 ] ] } },
{ "type": "Feature", "properties": { "segment_id": "NH58_SEG_078", "start_m": 38500.0, "end_m": 39000.0, "mean_elevation_m": 1899.2, "mean_slope_deg": 23.8, "max_slope_deg": 47.8, "mean_aspect_deg": 184.8, "dist_to_landslide_m": 1541.2, "dist_to_river_m": 474.8 }, "geometry": { "type": "LineString", "coordinates": [ [ 79.30411642857284, 30.322284173859298 ], [ 79.308270822494606, 30.324996471150442 ] ] } },
{ "type": "Feature", "properties": { "segment_id": "NH58_SEG_079", "start_m": 39000.0, "end_m": 39500.0, "mean_elevation_m": 1900.8, "mean_slope_deg": 23.8, "max_slope_deg": 47.8, "mean_aspect_deg": 184.9, "dist_to_landslide_m": 1041.2, "dist_to_river_m": 475.2 }, "geometry": { "type": "LineString", "coordinates": [ [ 79.308270822494606, 30.324996471150442 ], [ 79.31242544837886, 30.327708644027819 ] ] } },
{ "type": "Feature", "properties": { "segment_id": "NH58_SEG_080", "start_m": 39500.0, "end_m": 40000.0, "mean_elevation_m": 1901.9, "mean_slope_deg": 23.6, "max_slope_deg": 47.8, "mean_aspect_deg": 183.8, "dist_to_landslide_m": 541.2, "dist_to_river_m": 475.5 }, "geometry": { "type": "LineString", "coordinates": [ [ 79.31242544837886, 30.327708644027819 ], [ 79.316580306245712, 30.330420692448161 ] ] } },
{ "type": "Feature", "properties": { "segment_id": "NH58_SEG_081", "start_m": 40000.0, "end_m": 40500.0, "mean_elevation_m": 1905.6, "mean_slope_deg": 23.8, "max_slope_deg": 47.8, "mean_aspect_deg": 184.0, "dist_to_landslide_m": 61.5, "dist_to_river_m": 476.4 }, "geometry": { "type": "LineString", "coordinates": [ [ 79.316580306245712, 30.330420692448161 ], [ 79.319, 30.332 ], [ 79.319335838521411, 30.333861194690794 ] ] } },
{ "type": "Feature", "properties": { "segment_id": "NH58_SEG_082", "start_m": 40500.0, "end_m": 41000.0, "mean_elevation_m": 1909.8, "mean_slope_deg": 23.1, "max_slope_deg": 47.8, "mean_aspect_deg": 182.1, "dist_to_landslide_m": 458.8, "dist_to_river_m": 477.4 }, "geometry": { "type": "LineString", "coordinates": [ [ 79.319335838521411, 30.333861194690794 ], [ 79.320140000420892, 30.338317555165972 ] ] } },
{ "type": "Feature", "properties": { "segment_id": "NH58_SEG_083", "start_m": 41000.0, "end_m": 41500.0, "mean_elevation_m": 1913.3, "mean_slope_deg": 23.2, "max_slope_deg": 47.8, "mean_aspect_deg": 180.3, "dist_to_landslide_m": 958.8, "dist_to_river_m": 478.3 }, "geometry": { "type": "LineString", "coordinates": [ [ 79.320140000420892, 30.338317555165972 ], [ 79.320944225350928, 30.342773910530028 ] ] } },
{ "type": "Feature", "properties": { "segment_id": "NH58_SEG_084", "start_m": 41500.0, "end_m": 42000.0, "mean_elevation_m": 1915.1, "mean_slope_deg": 23.1, "max_slope_deg": 47.8, "mean_aspect_deg": 181.7, "dist_to_landslide_m": 1458.8, "dist_to_river_m": 478.8 }, "geometry": { "type": "LineString", "coordinates": [ [ 79.320944225350928, 30.342773910530028 ], [ 79.321748513334896, 30.347230260779998 ] ] } },
{ "type": "Feature", "properties": { "segment_id": "NH58_SEG_085", "start_m": 42000.0, "end_m": 42500.0, "mean_elevation_m": 1918.5, "mean_slope_deg": 23.2, "max_slope_deg": 47.8, "mean_aspect_deg": 180.5, "dist_to_landslide_m": 1958.8, "dist_to_river_m": 479.6 }, "geometry": { "type": "LineString", "coordinates": [ [ 79.321748513334896, 30.347230260779998 ], [ 79.322552864396158, 30.351686605912988 ] ] } },
{ "type": "Feature", "properties": { "segment_id": "NH58_SEG_086", "start_m": 42500.0, "end_m": 43000.0, "mean_elevation_m": 1923.5, "mean_slope_deg": 23.1, "max_slope_deg": 47.8, "mean_aspect_deg": 181.6, "dist_to_landslide_m": 2458.8, "dist_to_river_m": 480.9 }, "geometry": { "type": "LineString", "coordinates": [ [ 79.322552864396158, 30.351686605912988 ], [ 79.323357278558134, 30.356142945926027 ] ] } },
{ "type": "Feature", "properties": { "segment_id": "NH58_SEG_087", "start_m": 43000.0, "end_m": 43500.0, "mean_elevation_m": 1925.7, "mean_slope_deg": 23.0, "max_slope_deg": 47.8, "mean_aspect_deg": 181.0, "dist_to_landslide_m": 2958.8, "dist_to_river_m": 481.4 }, "geometry": { "type": "LineString", "coordinates": [ [ 79.323357278558134, 30.356142945926027 ], [ 79.324161755844216, 30.360599280816206 ] ] } },
{ "type": "Feature", "properties": { "segment_id": "NH58_SEG_088", "start_m": 43500.0, "end_m": 44000.0, "mean_elevation_m": 1929.4, "mean_slope_deg": 23.1, "max_slope_deg": 47.8, "mean_aspect_deg": 181.4, "dist_to_landslide_m": 3458.8, "dist_to_river_m": 482.4 }, "geometry": { "type": "LineString", "coordinates": [ [ 79.324161755844216, 30.360599280816206 ], [ 79.324966296277807, 30.365055610580594 ] ] } },
{ "type": "Feature", "properties": { "segment_id": "NH58_SEG_089", "start_m": 44000.0, "end_m": 44500.0, "mean_elevation_m": 1933.5, "mean_slope_deg": 23.0, "max_slope_deg": 47.8, "mean_aspect_deg": 181.1, "dist_to_landslide_m": 3958.8, "dist_to_river_m": 483.4 }, "geometry": { "type": "LineString", "coordinates": [ [ 79.324966296277807, 30.365055610580594 ], [ 79.325770899882301, 30.369511935216252 ] ] } },
{ "type": "Feature", "properties": { "segment_id": "NH58_SEG_090", "start_m": 44500.0, "end_m": 45000.0, "mean_elevation_m": 1938.0, "mean_slope_deg": 23.2, "max_slope_deg": 47.8, "mean_aspect_deg": 181.3, "dist_to_landslide_m": 3619.6, "dist_to_river_m": 484.5 }, "geometry": { "type": "LineString", "coordinates": [ [ 79.325770899882301, 30.369511935216252 ], [ 79.326575566681143, 30.373968254720261 ] ] } },
{ "type": "Feature", "properties": { "segment_id": "NH58_SEG_091", "start_m": 45000.0, "end_m": 45500.0, "mean_elevation_m": 1940.8, "mean_slope_deg": 23.0, "max_slope_deg": 47.8, "mean_aspect_deg": 181.6, "dist_to_landslide_m": 3119.6, "dist_to_river_m": 485.2 }, "geometry": { "type": "LineString", "coordinates": [ [ 79.326575566681143, 30.373968254720261 ], [ 79.327380296697712, 30.378424569089653 ] ] } },
{ "type": "Feature", "properties": { "segment_id": "NH58_SEG_092", "start_m": 45500.0, "end_m": 46000.0, "mean_elevation_m": 1944.4, "mean_slope_deg": 23.1, "max_slope_deg": 47.8, "mean_aspect_deg": 180.9, "dist_to_landslide_m": 2619.6, "dist_to_river_m": 486.1 }, "geometry": { "type": "LineString", "coordinates": [ [ 79.327380296697712, 30.378424569089653 ], [ 79.328185089955468, 30.382880878321512 ] ] } },
{ "type": "Feature", "properties": { "segment_id": "NH58_SEG_093", "start_m": 46000.0, "end_m": 46500.0, "mean_elevation_m": 1948.6, "mean_slope_deg": 23.0, "max_slope_deg": 47.8, "mean_aspect_deg": 182.2, "dist_to_landslide_m": 2119.6, "dist_to_river_m": 487.1 }, "geometry": { "type": "LineString", "coordinates": [ [ 79.328185089955468, 30.382880878321512 ], [ 79.328989946477805, 30.387337182412907 ] ] } },
{ "type": "Feature", "properties": { "segment_id": "NH58_SEG_094", "start_m": 46500.0, "end_m": 47000.0, "mean_elevation_m": 1952.1, "mean_slope_deg": 23.2, "max_slope_deg": 47.8, "mean_aspect_deg": 180.8, "dist_to_landslide_m": 1619.6, "dist_to_river_m": 488.0 }, "geometry": { "type": "LineString", "coordinates": [ [ 79.328989946477805, 30.387337182412907 ], [ 79.329794866288182, 30.39179348136091 ] ] } },
{ "type": "Feature", "properties": { "segment_id": "NH58_SEG_095", "start_m": 47000.0, "end_m": 47500.0, "mean_elevation_m": 1956.7, "mean_slope_deg": 23.0, "max_slope_deg": 47.8, "mean_aspect_deg": 181.8, "dist_to_landslide_m": 1119.6, "dist_to_river_m": 489.2 }, "geometry": { "type": "LineString", "coordinates": [ [ 79.329794866288182, 30.39179348136091 ], [ 79.330599849410049, 30.396249775162573 ] ] } },
{ "type": "Feature", "properties": { "segment_id": "NH58_SEG_096", "start_m": 47500.0, "end_m": 48000.0, "mean_elevation_m": 1959.9, "mean_slope_deg": 23.2, "max_slope_deg": 47.8, "mean_aspect_deg": 180.4, "dist_to_landslide_m": 619.6, "dist_to_river_m": 490.0 }, "geometry": { "type": "LineString", "coordinates": [ [ 79.330599849410049, 30.396249775162573 ], [ 79.331404895866839, 30.400706063814972 ] ] } },
{ "type": "Feature", "properties": { "segment_id": "NH58_SEG_097", "start_m": 48000.0, "end_m": 48500.0, "mean_elevation_m": 1961.9, "mean_slope_deg": 23.5, "max_slope_deg": 47.8, "mean_aspect_deg": 179.5, "dist_to_landslide_m": 120.2, "dist_to_river_m": 490.5 }, "geometry": { "type": "LineString", "coordinates": [ [ 79.331404895866839, 30.400706063814972 ], [ 79.332, 30.404 ], [ 79.332539577306804, 30.405079555473506 ] ] } },
{ "type": "Feature", "properties": { "segment_id": "NH58_SEG_098", "start_m": 48500.0, "end_m": 49000.0, "mean_elevation_m": 1963.5, "mean_slope_deg": 23.3, "max_slope_deg": 47.8, "mean_aspect_deg": 177.8, "dist_to_landslide_m": 380.4, "dist_to_river_m": 490.9 }, "geometry": { "type": "LineString", "coordinates": [ [ 79.332539577306804, 30.405079555473506 ], [ 79.334608349007084, 30.409218406245333 ] ] } },
{ "type": "Feature", "properties": { "segment_id": "NH58_SEG_099", "start_m": 49000.0, "end_m": 49500.0, "mean_elevation_m": 1968.9, "mean_slope_deg": 23.4, "max_slope_deg": 47.8, "mean_aspect_deg": 179.7, "dist_to_landslide_m": 880.4, "dist_to_river_m": 492.2 }, "geometry": { "type": "LineString", "coordinates": [ [ 79.334608349007084, 30.409218406245333 ], [ 79.336677288343779, 30.413357228202461 ] ] } },
{ "type": "Feature", "properties": { "segment_id": "NH58_SEG_100", "start_m": 49500.0, "end_m": 50000.0, "mean_elevation_m": 1973.3, "mean_slope_deg": 23.2, "max_slope_deg": 54.7, "mean_aspect_deg": 181.0, "dist_to_landslide_m": 1380.4, "dist_to_river_m": 493.3 }, "geometry": { "type": "LineString", "coordinates": [ [ 79.336677288343779, 30.413357228202461 ], [ 79.33874639536748, 30.417496021328418 ] ] } },
{ "type": "Feature", "properties": { "segment_id": "NH58_SEG_101", "start_m": 50000.0, "end_m": 50500.0, "mean_elevation_m": 1975.3, "mean_slope_deg": 23.3, "max_slope_deg": 47.8, "mean_aspect_deg": 178.1, "dist_to_landslide_m": 1880.4, "dist_to_river_m": 493.8 }, "geometry": { "type": "LineString", "coordinates": [ [ 79.33874639536748, 30.417496021328418 ], [ 79.340815670128819, 30.421634785606695 ] ] } },
{ "type": "Feature", "properties": { "segment_id": "NH58_SEG_102", "start_m": 50500.0, "end_m": 51000.0, "mean_elevation_m": 1978.9, "mean_slope_deg": 23.4, "max_slope_deg": 47.8, "mean_aspect_deg": 179.7, "dist_to_landslide_m": 1968.7, "dist_to_river_m": 494.7 }, "geometry": { "type": "LineString", "coordinates": [ [ 79.340815670128819, 30.421634785606695 ], [ 79.342885112678402, 30.42577352102084 ] ] } },
{ "type": "Feature", "properties": { "segment_id": "NH58_SEG_103", "start_m": 51000.0, "end_m": 51500.0, "mean_elevation_m": 1982.4, "mean_slope_deg": 23.3, "max_slope_deg": 54.7, "mean_aspect_deg": 180.8, "dist_to_landslide_m": 1468.7, "dist_to_river_m": 495.6 }, "geometry": { "type": "LineString", "coordinates": [ [ 79.342885112678402, 30.42577352102084 ], [ 79.344954723066863, 30.429912227554336 ] ] } },
{ "type": "Feature", "properties": { "segment_id": "NH58_SEG_104", "start_m": 51500.0, "end_m": 52000.0, "mean_elevation_m": 1986.3, "mean_slope_deg": 23.4, "max_slope_deg": 47.8, "mean_aspect_deg": 178.3, "dist_to_landslide_m": 968.7, "dist_to_river_m": 496.6 }, "geometry": { "type": "LineString", "coordinates": [ [ 79.344954723066863, 30.429912227554336 ], [ 79.347024501344876, 30.434050905190709 ] ] } },
{ "type": "Feature", "properties": { "segment_id": "NH58_SEG_105", "start_m": 52000.0, "end_m": 52500.0, "mean_elevation_m": 1989.1, "mean_slope_deg": 23.4, "max_slope_deg": 47.8, "mean_aspect_deg": 179.7, "dist_to_landslide_m": 468.7, "dist_to_river_m": 497.3 }, "geometry": { "type": "LineString", "coordinates": [ [ 79.347024501344876, 30.434050905190709 ], [ 79.349094447563033, 30.43818955391345 ] ] } },
{ "type": "Feature", "properties": { "segment_id": "NH58_SEG_106", "start_m": 52500.0, "end_m": 53000.0, "mean_elevation_m": 1993.0, "mean_slope_deg": 23.5, "max_slope_deg": 47.8, "mean_aspect_deg": 179.2, "dist_to_landslide_m": 33.1, "dist_to_river_m": 498.2 }, "geometry": { "type": "LineString", "coordinates": [ [ 79.349094447563033, 30.43818955391345 ], [ 79.35, 30.44 ], [ 79.350672819552486, 30.442469559585422 ] ] } },
{ "type": "Feature", "properties": { "segment_id": "NH58_SEG_107", "start_m": 53000.0, "end_m": 53500.0, "mean_elevation_m": 1996.6, "mean_slope_deg": 23.4, "max_slope_deg": 47.8, "mean_aspect_deg": 180.8, "dist_to_landslide_m": 531.3, "dist_to_river_m": 499.1 }, "geometry": { "type": "LineString", "coordinates": [ [ 79.350672819552486, 30.442469559585422 ], [ 79.351868915264546, 30.446859496035032 ] ] } },
{ "type": "Feature", "properties": { "segment_id": "NH58_SEG_108", "start_m": 53500.0, "end_m": 54000.0, "mean_elevation_m": 1999.2, "mean_slope_deg": 23.6, "max_slope_deg": 54.7, "mean_aspect_deg": 179.3, "dist_to_landslide_m": 1031.3, "dist_to_river_m": 499.8 }, "geometry": { "type": "LineString", "coordinates": [ [ 79.351868915264546, 30.446859496035032 ], [ 79.353065109155239, 30.451249422619362 ] ] } },
{ "type": "Feature", "properties": { "segment_id": "NH58_SEG_109", "start_m": 54000.0, "end_m": 54500.0, "mean_elevation_m": 2002.0, "mean_slope_deg": 23.3, "max_slope_deg": 47.8, "mean_aspect_deg": 181.2, "dist_to_landslide_m": 1531.3, "dist_to_river_m": 500.5 }, "geometry": { "type": "LineString", "coordinates": [ [ 79.353065109155239, 30.451249422619362 ], [ 79.35426140125854, 30.455639339332429 ] ] } },
{ "type": "Feature", "properties": { "segment_id": "NH58_SEG_110", "start_m": 54500.0, "end_m": 55000.0, "mean_elevation_m": 2005.7, "mean_slope_deg": 23.3, "max_slope_deg": 47.8, "mean_aspect_deg": 179.4, "dist_to_landslide_m": 2031.3, "dist_to_river_m": 501.4 }, "geometry": { "type": "LineString", "coordinates": [ [ 79.35426140125854, 30.455639339332429 ], [ 79.355457791608515, 30.460029246168165 ] ] } },
{ "type": "Feature", "properties": { "segment_id": "NH58_SEG_111", "start_m": 55000.0, "end_m": 55500.0, "mean_elevation_m": 2010.3, "mean_slope_deg": 23.5, "max_slope_deg": 47.8, "mean_aspect_deg": 181.0, "dist_to_landslide_m": 2531.3, "dist_to_river_m": 502.6 }, "geometry": { "type": "LineString", "coordinates": [ [ 79.355457791608515, 30.460029246168165 ], [ 79.356654280239127, 30.464419143120526 ] ] } },
{ "type": "Feature", "properties": { "segment_id": "NH58_SEG_112", "start_m": 55500.0, "end_m": 56000.0, "mean_elevation_m": 2012.7, "mean_slope_deg": 23.6, "max_slope_deg": 54.7, "mean_aspect_deg": 181.1, "dist_to_landslide_m": 3031.3, "dist_to_river_m": 503.2 }, "geometry": { "type": "LineString", "coordinates": [ [ 79.356654280239127, 30.464419143120526 ], [ 79.357850867184453, 30.468809030183515 ] ] } },
{ "type": "Feature", "properties": { "segment_id": "NH58_SEG_113", "start_m": 56000.0, "end_m": 56500.0, "mean_elevation_m": 2014.9, "mean_slope_deg": 23.3, "max_slope_deg": 47.8, "mean_aspect_deg": 181.2, "dist_to_landslide_m": 3531.3, "dist_to_river_m": 503.7 }, "geometry": { "type": "LineString", "coordinates": [ [ 79.357850867184453, 30.468809030183515 ], [ 79.359047552478501, 30.473198907351076 ] ] } },
{ "type": "Feature", "properties": { "segment_id": "NH58_SEG_114", "start_m": 56500.0, "end_m": 57000.0, "mean_elevation_m": 2019.9, "mean_slope_deg": 23.4, "max_slope_deg": 47.8, "mean_aspect_deg": 182.1, "dist_to_landslide_m": 4031.3, "dist_to_river_m": 505.0 }, "geometry": { "type": "LineString", "coordinates": [ [ 79.359047552478501, 30.473198907351076 ], [ 79.360244336155347, 30.477588774617171 ] ] } },
{ "type": "Feature", "properties": { "segment_id": "NH58_SEG_115", "start_m": 57000.0, "end_m": 57500.0, "mean_elevation_m": 2023.0, "mean_slope_deg": 23.5, "max_slope_deg": 47.8, "mean_aspect_deg": 179.7, "dist_to_landslide_m": 4531.3, "dist_to_river_m": 505.8 }, "geometry": { "type": "LineString", "coordinates": [ [ 79.360244336155347, 30.477588774617171 ], [ 79.361441218248984, 30.481978631975775 ] ] } },
{ "type": "Feature", "properties": { "segment_id": "NH58_SEG_116", "start_m": 57500.0, "end_m": 58000.0, "mean_elevation_m": 2027.2, "mean_slope_deg": 23.7, "max_slope_deg": 54.7, "mean_aspect_deg": 180.7, "dist_to_landslide_m": 5031.3, "dist_to_river_m": 506.8 }, "geometry": { "type": "LineString", "coordinates": [ [ 79.361441218248984, 30.481978631975775 ], [ 79.362638198793519, 30.486368479420843 ] ] } },
{ "type": "Feature", "properties": { "segment_id": "NH58_SEG_117", "start_m": 58000.0, "end_m": 58500.0, "mean_elevation_m": 2031.6, "mean_slope_deg": 23.4, "max_slope_deg": 47.8, "mean_aspect_deg": 178.7, "dist_to_landslide_m": 5531.3, "dist_to_river_m": 507.9 }, "geometry": { "type": "LineString", "coordinates": [ [ 79.362638198793519, 30.486368479420843 ], [ 79.363835277823014, 30.490758316946334 ] ] } },
{ "type": "Feature", "properties": { "segment_id": "NH58_SEG_118", "start_m": 58500.0, "end_m": 59000.0, "mean_elevation_m": 2034.7, "mean_slope_deg": 23.5, "max_slope_deg": 47.8, "mean_aspect_deg": 181.4, "dist_to_landslide_m": 6031.3, "dist_to_river_m": 508.7 }, "geometry": { "type": "LineString", "coordinates": [ [ 79.363835277823014, 30.490758316946334 ], [ 79.365032455371534, 30.49514814454621 ] ] } },
{ "type": "Feature", "properties": { "segment_id": "NH58_SEG_119", "start_m": 59000.0, "end_m": 59500.0, "mean_elevation_m": 2037.9, "mean_slope_deg": 23.5, "max_slope_deg": 47.8, "mean_aspect_deg": 179.7, "dist_to_landslide_m": 6531.3, "dist_to_river_m": 509.5 }, "geometry": { "type": "LineString", "coordinates": [ [ 79.365032455371534, 30.49514814454621 ], [ 79.366229731473169, 30.499537962214436 ] ] } },
{ "type": "Feature", "properties": { "segment_id": "NH58_SEG_120", "start_m": 59500.0, "end_m": 60000.0, "mean_elevation_m": 2042.4, "mean_slope_deg": 23.6, "max_slope_deg": 54.7, "mean_aspect_deg": 178.4, "dist_to_landslide_m": 7031.3, "dist_to_river_m": 510.6 }, "geometry": { "type": "LineString", "coordinates": [ [ 79.366229731473169, 30.499537962214436 ], [ 79.367427106162012, 30.503927769944973 ] ] } },
{ "type": "Feature", "properties": { "segment_id": "NH58_SEG_121", "start_m": 60000.0, "end_m": 60500.0, "mean_elevation_m": 2044.7, "mean_slope_deg": 23.2, "max_slope_deg": 47.8, "mean_aspect_deg": 180.2, "dist_to_landslide_m": 7531.3, "dist_to_river_m": 511.2 }, "geometry": { "type": "LineString", "coordinates": [ [ 79.367427106162012, 30.503927769944973 ], [ 79.368624579472154, 30.508317567731776 ] ] } },
{ "type": "Feature", "properties": { "segment_id": "NH58_SEG_122", "start_m": 60500.0, "end_m": 61000.0, "mean_elevation_m": 2047.9, "mean_slope_deg": 23.4, "max_slope_deg": 47.8, "mean_aspect_deg": 178.2, "dist_to_landslide_m": 8031.3, "dist_to_river_m": 512.0 }, "geometry": { "type": "LineString", "coordinates": [ [ 79.368624579472154, 30.508317567731776 ], [ 79.369822151437717, 30.512707355568796 ] ] } },
{ "type": "Feature", "properties": { "segment_id": "NH58_SEG_123", "start_m": 61000.0, "end_m": 61500.0, "mean_elevation_m": 2051.8, "mean_slope_deg": 23.6, "max_slope_deg": 47.8, "mean_aspect_deg": 181.0, "dist_to_landslide_m": 8531.3, "dist_to_river_m": 513.0 }, "geometry": { "type": "LineString", "coordinates": [ [ 79.369822151437717, 30.512707355568796 ], [ 79.371019822092805, 30.517097133450008 ] ] } },
{ "type": "Feature", "properties": { "segment_id": "NH58_SEG_124", "start_m": 61500.0, "end_m": 62000.0, "mean_elevation_m": 2056.3, "mean_slope_deg": 23.6, "max_slope_deg": 54.7, "mean_aspect_deg": 180.4, "dist_to_landslide_m": 9031.3, "dist_to_river_m": 514.1 }, "geometry": { "type": "LineString", "coordinates": [ [ 79.371019822092805, 30.517097133450008 ], [ 79.372217591471568, 30.521486901369371 ] ] } },
{ "type": "Feature", "properties": { "segment_id": "NH58_SEG_125", "start_m": 62000.0, "end_m": 62500.0, "mean_elevation_m": 2059.6, "mean_slope_deg": 23.4, "max_slope_deg": 47.8, "mean_aspect_deg": 181.5, "dist_to_landslide_m": 9531.3, "dist_to_river_m": 514.9 }, "geometry": { "type": "LineString", "coordinates": [ [ 79.372217591471568, 30.521486901369371 ], [ 79.373415459608111, 30.525876659320804 ] ] } },
{ "type": "Feature", "properties": { "segment_id": "NH58_SEG_126", "start_m": 62500.0, "end_m": 63000.0, "mean_elevation_m": 2061.8, "mean_slope_deg": 23.4, "max_slope_deg": 47.8, "mean_aspect_deg": 180.4, "dist_to_landslide_m": 10031.3, "dist_to_river_m": 515.5 }, "geometry": { "type": "LineString", "coordinates": [ [ 79.373415459608111, 30.525876659320804 ], [ 79.37461342653657, 30.530266407298296 ] ] } },
{ "type": "Feature", "properties": { "segment_id": "NH58_SEG_127", "start_m": 63000.0, "end_m": 63500.0, "mean_elevation_m": 2067.3, "mean_slope_deg": 23.5, "max_slope_deg": 47.8, "mean_aspect_deg": 179.1, "dist_to_landslide_m": 10531.3, "dist_to_river_m": 516.8 }, "geometry": { "type": "LineString", "coordinates": [ [ 79.37461342653657, 30.530266407298296 ], [ 79.37581149229112, 30.534656145295777 ] ] } },
{ "type": "Feature", "properties": { "segment_id": "NH58_SEG_128", "start_m": 63500.0, "end_m": 64000.0, "mean_elevation_m": 2069.8, "mean_slope_deg": 23.7, "max_slope_deg": 54.7, "mean_aspect_deg": 180.4, "dist_to_landslide_m": 11031.3, "dist_to_river_m": 517.5 }, "geometry": { "type": "LineString", "coordinates": [ [ 79.37581149229112, 30.534656145295777 ], [ 79.377009656905912, 30.539045873307224 ] ] } },
{ "type": "Feature", "properties": { "segment_id": "NH58_SEG_129", "start_m": 64000.0, "end_m": 64500.0, "mean_elevation_m": 2072.6, "mean_slope_deg": 23.3, "max_slope_deg": 47.8, "mean_aspect_deg": 177.7, "dist_to_landslide_m": 11531.3, "dist_to_river_m": 518.1 }, "geometry": { "type": "LineString", "coordinates": [ [ 79.377009656905912, 30.539045873307224 ], [ 79.378207920415093, 30.543435591326574 ] ] } },
{ "type": "Feature", "properties": { "segment_id": "NH58_SEG_130", "start_m": 64500.0, "end_m": 65000.0, "mean_elevation_m": 2077.9, "mean_slope_deg": 23.4, "max_slope_deg": 47.8, "mean_aspect_deg": 181.2, "dist_to_landslide_m": 12031.3, "dist_to_river_m": 519.5 }, "geometry": { "type": "LineString", "coordinates": [ [ 79.378207920415093, 30.543435591326574 ], [ 79.379406282852855, 30.547825299347778 ] ] } },
{ "type": "Feature", "properties": { "segment_id": "NH58_SEG_131", "start_m": 65000.0, "end_m": 65247.704898263299, "mean_elevation_m": 2080.5, "mean_slope_deg": 23.1, "max_slope_deg": 47.8, "mean_aspect_deg": 182.5, "dist_to_landslide_m": 12405.1, "dist_to_river_m": 520.1 }, "geometry": { "type": "LineString", "coordinates": [ [ 79.379406282852855, 30.547825299347778 ], [ 79.38, 30.55 ] ] } }
]
}
