{
"type": "FeatureCollection",
"name": "landslide_inventory",
"crs": { "type": "name", "properties": { "name": "urn:ogc:def:crs:OGC:1.3:CRS84" } },
"features": [
{ "type": "Feature", "properties": { "location": "Sirobagar Slide Zone", "lon": 78.995, "lat": 30.245, "label": 1, "trigger_rain_mm": 165.0 }, "geometry": { "type": "Point", "coordinates": [ 78.995, 30.245 ] } },
{ "type": "Feature", "properties": { "location": "Kaleshwar Active Cut", "lon": 79.08, "lat": 30.265, "label": 1, "trigger_rain_mm": 142.0 }, "geometry": { "type": "Point", "coordinates": [ 79.08, 30.265 ] } },
{ "type": "Feature", "properties": { "location": "Gauchar Rockfall Zone", "lon": 79.155, "lat": 30.288, "label": 1, "trigger_rain_mm": 128.5 }, "geometry": { "type": "Point", "coordinates": [ 79.155, 30.288 ] } },
{ "type": "Feature", "properties": { "location": "Karnaprayag Highway Cut", "lon": 79.217, "lat": 30.258, "label": 1, "trigger_rain_mm": 180.0 }, "geometry": { "type": "Point", "coordinates": [ 79.217, 30.258 ] } },
{ "type": "Feature", "properties": { "location": "Langasu Subsidence", "lon": 79.27, "lat": 30.3, "label": 1, "trigger_rain_mm": 110.0 }, "geometry": { "type": "Point", "coordinates": [ 79.27, 30.3 ] } },
{ "type": "Feature", "properties": { "location": "Nandaprayag Gorge Slide", "lon": 79.319, "lat": 30.332, "label": 1, "trigger_rain_mm": 155.0 }, "geometry": { "type": "Point", "coordinates": [ 79.319, 30.332 ] } },
{ "type": "Feature", "properties": { "location": "Chamoli Junction Slide", "lon": 79.332, "lat": 30.404, "label": 1, "trigger_rain_mm": 175.0 }, "geometry": { "type": "Point", "coordinates": [ 79.332, 30.404 ] } },
{ "type": "Feature", "properties": { "location": "Birhi Riverbank Erosion", "lon": 79.35, "lat": 30.44, "label": 1, "trigger_rain_mm": 135.0 }, "geometry": { "type": "Point", "coordinates": [ 79.35, 30.44 ] } },
{ "type": "Feature", "properties": { "location": "Rudraprayag Stable Ridge", "lon": 78.981, "lat": 30.284, "label": 0, "trigger_rain_mm": 45.0 }, "geometry": { "type": "Point", "coordinates": [ 78.981, 30.284 ] } },
{ "type": "Feature", "properties": { "location": "Gauchar Flat Terrace", "lon": 79.14, "lat": 30.28, "label": 0, "trigger_rain_mm": 50.0 }, "geometry": { "type": "Point", "coordinates": [ 79.14, 30.28 ] } },
{ "type": "Feature", "properties": { "location": "Karnaprayag Stable Bench", "lon": 79.21, "lat": 30.25, "label": 0, "trigger_rain_mm": 30.0 }, "geometry": { "type": "Point", "coordinates": [ 79.21, 30.25 ] } },
{ "type": "Feature", "properties": { "location": "Nandaprayag Bridge Approach", "lon": 79.31, "lat": 30.325, "label": 0, "trigger_rain_mm": 40.0 }, "geometry": { "type": "Point", "coordinates": [ 79.31, 30.325 ] } },
{ "type": "Feature", "properties": { "location": "Chamoli Valley Bottom", "lon": 79.325, "lat": 30.395, "label": 0, "trigger_rain_mm": 35.0 }, "geometry": { "type": "Point", "coordinates": [ 79.325, 30.395 ] } }
]
}
