{
"type": "FeatureCollection",
"name": "nh58_highway",
"crs": { "type": "name", "properties": { "name": "urn:ogc:def:crs:OGC:1.3:CRS84" } },
"features": [
{ "type": "Feature", "properties": { "name": "NH-58 Rudraprayag-Chamoli", "ref": "NH58" }, "geometry": { "type": "LineString", "coordinates": [ [ 78.981, 30.284 ], [ 78.995, 30.245 ], [ 79.08, 30.265 ], [ 79.155, 30.288 ], [ 79.217, 30.258 ], [ 79.27, 30.3 ], [ 79.319, 30.332 ], [ 79.332, 30.404 ], [ 79.35, 30.44 ], [ 79.38, 30.55 ] ] } }
]
}
